{
  "norad_id": 26407,
  "name": "NAVSTAR 48 (USA 151)",
  "history": [
    {
      "epoch": "2026-03-28T12:46:25.008096Z",
      "apogee_km": 20506.34864364564,
      "perigee_km": 19857.098692780517,
      "latitude_deg": 7.027328280539388,
      "longitude_deg": -154.2374374715082,
      "height_km": 20046.552831317586,
      "semi_major_axis_km": 26559.860668213078,
      "eccentricity": 0.01222239,
      "inclination_deg": 54.8698,
      "raan_deg": 218.3638,
      "arg_perigee_deg": 302.5125,
      "mean_anomaly_deg": 64.7596,
      "mean_motion_rev_day": 2.00569122
    },
    {
      "epoch": "2026-03-30T12:38:00.348288Z",
      "apogee_km": 20506.275110056446,
      "perigee_km": 19857.161279447475,
      "latitude_deg": 6.97249479866067,
      "longitude_deg": -154.221331108945,
      "height_km": 20046.201730758436,
      "semi_major_axis_km": 26559.85519475196,
      "eccentricity": 0.01221983,
      "inclination_deg": 54.8692,
      "raan_deg": 218.2847,
      "arg_perigee_deg": 302.5129,
      "mean_anomaly_deg": 64.6883,
      "mean_motion_rev_day": 2.00569184
    },
    {
      "epoch": "2026-03-31T18:03:41.940864Z",
      "apogee_km": 20506.200432189602,
      "perigee_km": 19857.226422902764,
      "latitude_deg": 6.859140104026937,
      "longitude_deg": -66.67283889482881,
      "height_km": 20391.87766901112,
      "semi_major_axis_km": 26559.850427546182,
      "eccentricity": 0.0122172,
      "inclination_deg": 54.8689,
      "raan_deg": 218.2361,
      "arg_perigee_deg": 302.5173,
      "mean_anomaly_deg": 230.0733,
      "mean_motion_rev_day": 2.00569238
    },
    {
      "epoch": "2026-03-31T18:03:41.941728Z",
      "apogee_km": 20506.200963386607,
      "perigee_km": 19857.225891705755,
      "latitude_deg": 6.859141512656515,
      "longitude_deg": -66.67284351164733,
      "height_km": 20391.87801724106,
      "semi_major_axis_km": 26559.850427546182,
      "eccentricity": 0.01221722,
      "inclination_deg": 54.8689,
      "raan_deg": 218.2361,
      "arg_perigee_deg": 302.5173,
      "mean_anomaly_deg": 230.0733,
      "mean_motion_rev_day": 2.00569238
    },
    {
      "epoch": "2026-04-02T17:54:28.704384Z",
      "apogee_km": 20506.117421513987,
      "perigee_km": 19857.297603851468,
      "latitude_deg": 7.248779983249205,
      "longitude_deg": -66.6901248691686,
      "height_km": 20393.896353552587,
      "semi_major_axis_km": 26559.84451268273,
      "eccentricity": 0.0122143,
      "inclination_deg": 54.8684,
      "raan_deg": 218.157,
      "arg_perigee_deg": 302.5173,
      "mean_anomaly_deg": 229.5971,
      "mean_motion_rev_day": 2.00569305
    },
    {
      "epoch": "2026-04-02T17:54:28.705248Z",
      "apogee_km": 20506.117421513987,
      "perigee_km": 19857.297603851468,
      "latitude_deg": 7.248779863636943,
      "longitude_deg": -66.69002843617118,
      "height_km": 20393.89635294683,
      "semi_major_axis_km": 26559.84451268273,
      "eccentricity": 0.0122143,
      "inclination_deg": 54.8684,
      "raan_deg": 218.1571,
      "arg_perigee_deg": 302.5173,
      "mean_anomaly_deg": 229.5971,
      "mean_motion_rev_day": 2.00569305
    },
    {
      "epoch": "2026-04-03T17:51:04.233600Z",
      "apogee_km": 20506.093939644976,
      "perigee_km": 19857.31667164498,
      "latitude_deg": 6.960502487569408,
      "longitude_deg": -66.65412010511075,
      "height_km": 20392.351841954132,
      "semi_major_axis_km": 26559.842305644976,
      "eccentricity": 0.0122135,
      "inclination_deg": 54.8679,
      "raan_deg": 218.1175,
      "arg_perigee_deg": 302.5142,
      "mean_anomaly_deg": 229.965,
      "mean_motion_rev_day": 2.0056933
    },
    {
      "epoch": "2026-04-05T12:02:06.562176Z",
      "apogee_km": 20506.05805657353,
      "perigee_km": 19857.34672813814,
      "latitude_deg": 2.3517930190744885,
      "longitude_deg": -154.6465141921826,
      "height_km": 20018.273033261095,
      "semi_major_axis_km": 26559.839392355832,
      "eccentricity": 0.01221226,
      "inclination_deg": 54.8674,
      "raan_deg": 218.0478,
      "arg_perigee_deg": 302.5101,
      "mean_anomaly_deg": 59.1336,
      "mean_motion_rev_day": 2.00569363
    },
    {
      "epoch": "2026-04-05T17:44:03.583104Z",
      "apogee_km": 20506.049202466962,
      "perigee_km": 19857.355405681752,
      "latitude_deg": 6.461567254363789,
      "longitude_deg": -66.58914017691475,
      "height_km": 20389.64551346238,
      "semi_major_axis_km": 26559.839304074354,
      "eccentricity": 0.01221193,
      "inclination_deg": 54.8673,
      "raan_deg": 218.0384,
      "arg_perigee_deg": 302.5079,
      "mean_anomaly_deg": 230.6033,
      "mean_motion_rev_day": 2.00569364
    },
    {
      "epoch": "2026-04-06T17:39:28.882080Z",
      "apogee_km": 20506.015374671722,
      "perigee_km": 19857.38746784754,
      "latitude_deg": 6.64326616268332,
      "longitude_deg": -66.59544665629426,
      "height_km": 20390.573863691196,
      "semi_major_axis_km": 26559.83842125963,
      "eccentricity": 0.01221069,
      "inclination_deg": 54.8671,
      "raan_deg": 217.9989,
      "arg_perigee_deg": 302.5066,
      "mean_anomaly_deg": 230.3827,
      "mean_motion_rev_day": 2.00569374
    },
    {
      "epoch": "2026-04-07T23:36:54.935424Z",
      "apogee_km": 20506.02670604276,
      "perigee_km": 19857.37595991357,
      "latitude_deg": -3.841189515798736,
      "longitude_deg": 24.755391721705447,
      "height_km": 19983.94675342191,
      "semi_major_axis_km": 26559.838332978165,
      "eccentricity": 0.01221112,
      "inclination_deg": 54.8664,
      "raan_deg": 217.9495,
      "arg_perigee_deg": 302.5058,
      "mean_anomaly_deg": 51.6891,
      "mean_motion_rev_day": 2.00569375
    },
    {
      "epoch": "2026-04-08T17:31:03.741888Z",
      "apogee_km": 20505.99217825293,
      "perigee_km": 19857.4104877034,
      "latitude_deg": 6.705867424680013,
      "longitude_deg": -66.57903443864015,
      "height_km": 20390.863422833656,
      "semi_major_axis_km": 26559.838332978165,
      "eccentricity": 0.01220982,
      "inclination_deg": 54.8661,
      "raan_deg": 217.9199,
      "arg_perigee_deg": 302.5039,
      "mean_anomaly_deg": 230.3114,
      "mean_motion_rev_day": 2.00569375
    },
    {
      "epoch": "2026-04-10T11:52:49.708992Z",
      "apogee_km": 20505.917636945313,
      "perigee_km": 19857.48573526277,
      "latitude_deg": 7.070830571493312,
      "longitude_deg": -154.0988859267191,
      "height_km": 20046.923095928647,
      "semi_major_axis_km": 26559.838686104038,
      "eccentricity": 0.012207,
      "inclination_deg": 54.8656,
      "raan_deg": 217.85,
      "arg_perigee_deg": 302.501,
      "mean_anomaly_deg": 64.8584,
      "mean_motion_rev_day": 2.00569371
    },
    {
      "epoch": "2026-04-11T11:48:30.852864Z",
      "apogee_km": 20505.878333341247,
      "perigee_km": 19857.526098244525,
      "latitude_deg": 6.998621280334365,
      "longitude_deg": -154.09461986150265,
      "height_km": 20046.506941419364,
      "semi_major_axis_km": 26559.839215792883,
      "eccentricity": 0.0122055,
      "inclination_deg": 54.8653,
      "raan_deg": 217.8104,
      "arg_perigee_deg": 302.4978,
      "mean_anomaly_deg": 64.7724,
      "mean_motion_rev_day": 2.00569365
    },
    {
      "epoch": "2026-04-12T23:45:47.949120Z",
      "apogee_km": 20505.83673118707,
      "perigee_km": 19857.56946602827,
      "latitude_deg": 8.441659348619737,
      "longitude_deg": 26.083244310039895,
      "height_km": 20055.622054262964,
      "semi_major_axis_km": 26559.84009860767,
      "eccentricity": 0.0122039,
      "inclination_deg": 54.8649,
      "raan_deg": 217.7509,
      "arg_perigee_deg": 302.4921,
      "mean_anomaly_deg": 66.5278,
      "mean_motion_rev_day": 2.00569355
    },
    {
      "epoch": "2026-04-14T11:30:28.811232Z",
      "apogee_km": 20505.795483987287,
      "perigee_km": 19857.612655420766,
      "latitude_deg": 4.670584121435525,
      "longitude_deg": -154.30809539701815,
      "height_km": 20032.275191542114,
      "semi_major_axis_km": 26559.841069704027,
      "eccentricity": 0.01220231,
      "inclination_deg": 54.8646,
      "raan_deg": 217.6918,
      "arg_perigee_deg": 302.488,
      "mean_anomaly_deg": 61.9615,
      "mean_motion_rev_day": 2.00569344
    },
    {
      "epoch": "2026-04-15T11:31:54.309216Z",
      "apogee_km": 20505.76140298698,
      "perigee_km": 19857.647619236006,
      "latitude_deg": 6.9720447900597815,
      "longitude_deg": -154.05466219419384,
      "height_km": 20046.391550920074,
      "semi_major_axis_km": 26559.841511111492,
      "eccentricity": 0.01220101,
      "inclination_deg": 54.8643,
      "raan_deg": 217.6521,
      "arg_perigee_deg": 302.4871,
      "mean_anomaly_deg": 64.7511,
      "mean_motion_rev_day": 2.00569339
    },
    {
      "epoch": "2026-04-16T12:01:48.794016Z",
      "apogee_km": 20505.724311044425,
      "perigee_km": 19857.685417430526,
      "latitude_deg": 20.811730768777572,
      "longitude_deg": -152.02953613672096,
      "height_km": 20139.69652389941,
      "semi_major_axis_km": 26559.841864237475,
      "eccentricity": 0.0121996,
      "inclination_deg": 54.864,
      "raan_deg": 217.6116,
      "arg_perigee_deg": 302.4869,
      "mean_anomaly_deg": 81.8226,
      "mean_motion_rev_day": 2.00569335
    },
    {
      "epoch": "2026-04-17T16:54:03.803616Z",
      "apogee_km": 20505.682080895866,
      "perigee_km": 19857.72764757909,
      "latitude_deg": 6.620979520191612,
      "longitude_deg": -66.4709490798449,
      "height_km": 20390.196547484105,
      "semi_major_axis_km": 26559.841864237475,
      "eccentricity": 0.01219801,
      "inclination_deg": 54.8637,
      "raan_deg": 217.5638,
      "arg_perigee_deg": 302.4885,
      "mean_anomaly_deg": 230.441,
      "mean_motion_rev_day": 2.00569335
    }
  ]
}